[{"OBJECT_NAME":"ONEWEB-0092","OBJECT_ID":"2020-020P","EPOCH":"2025-07-30T04:46:24.922848","MEAN_MOTION":13.11416277,"ECCENTRICITY":0.0001526,"INCLINATION":87.8804,"RA_OF_ASC_NODE":85.237,"ARG_OF_PERICENTER":83.5359,"MEAN_ANOMALY":276.5942,"EPHEMERIS_TYPE":0,"CLASSIFICATION_TYPE":"U","NORAD_CAT_ID":45437,"ELEMENT_SET_NO":999,"REV_AT_EPOCH":26058,"BSTAR":-0.00011687,"MEAN_MOTION_DOT":-2.9e-7,"MEAN_MOTION_DDOT":0},{"OBJECT_NAME":"ONEWEB-0085","OBJECT_ID":"2020-020Q","EPOCH":"2025-07-30T03:38:03.008544","MEAN_MOTION":13.11418805,"ECCENTRICITY":0.0001609,"INCLINATION":87.881,"RA_OF_ASC_NODE":85.259,"ARG_OF_PERICENTER":82.0524,"MEAN_ANOMALY":278.0787,"EPHEMERIS_TYPE":0,"CLASSIFICATION_TYPE":"U","NORAD_CAT_ID":45438,"ELEMENT_SET_NO":999,"REV_AT_EPOCH":26047,"BSTAR":-0.00081328,"MEAN_MOTION_DOT":-2.76e-6,"MEAN_MOTION_DDOT":0},{"OBJECT_NAME":"ONEWEB-0096","OBJECT_ID":"2020-020R","EPOCH":"2025-07-29T16:52:16.712544","MEAN_MOTION":13.11418866,"ECCENTRICITY":0.0001966,"INCLINATION":87.8821,"RA_OF_ASC_NODE":85.3155,"ARG_OF_PERICENTER":81.4885,"MEAN_ANOMALY":278.6466,"EPHEMERIS_TYPE":0,"CLASSIFICATION_TYPE":"U","NORAD_CAT_ID":45439,"ELEMENT_SET_NO":999,"REV_AT_EPOCH":26039,"BSTAR":0.00048893,"MEAN_MOTION_DOT":1.86e-6,"MEAN_MOTION_DDOT":0},{"OBJECT_NAME":"ONEWEB-0037","OBJECT_ID":"2020-020S","EPOCH":"2025-07-30T03:23:24.521856","MEAN_MOTION":13.11416501,"ECCENTRICITY":0.0001679,"INCLINATION":87.8824,"RA_OF_ASC_NODE":85.1922,"ARG_OF_PERICENTER":81.7432,"MEAN_ANOMALY":278.3887,"EPHEMERIS_TYPE":0,"CLASSIFICATION_TYPE":"U","NORAD_CAT_ID":45440,"ELEMENT_SET_NO":999,"REV_AT_EPOCH":26049,"BSTAR":-0.0014919,"MEAN_MOTION_DOT":-5.16e-6,"MEAN_MOTION_DDOT":0},{"OBJECT_NAME":"ONEWEB-0042","OBJECT_ID":"2020-020T","EPOCH":"2025-07-29T16:37:25.332384","MEAN_MOTION":13.11421313,"ECCENTRICITY":0.000175,"INCLINATION":87.8816,"RA_OF_ASC_NODE":85.3269,"ARG_OF_PERICENTER":83.2189,"MEAN_ANOMALY":276.9138,"EPHEMERIS_TYPE":0,"CLASSIFICATION_TYPE":"U","NORAD_CAT_ID":45441,"ELEMENT_SET_NO":999,"REV_AT_EPOCH":26039,"BSTAR":-0.00080873,"MEAN_MOTION_DOT":-2.74e-6,"MEAN_MOTION_DDOT":0},{"OBJECT_NAME":"ONEWEB-0098","OBJECT_ID":"2020-020U","EPOCH":"2025-07-30T03:30:43.358688","MEAN_MOTION":13.11417719,"ECCENTRICITY":0.0001792,"INCLINATION":87.8814,"RA_OF_ASC_NODE":85.2467,"ARG_OF_PERICENTER":71.2562,"MEAN_ANOMALY":288.8761,"EPHEMERIS_TYPE":0,"CLASSIFICATION_TYPE":"U","NORAD_CAT_ID":45442,"ELEMENT_SET_NO":999,"REV_AT_EPOCH":26043,"BSTAR":-0.0013368,"MEAN_MOTION_DOT":-4.61e-6,"MEAN_MOTION_DDOT":0},{"OBJECT_NAME":"ONEWEB-0055","OBJECT_ID":"2020-020V","EPOCH":"2025-07-30T04:56:11.037120","MEAN_MOTION":13.11415795,"ECCENTRICITY":0.0001762,"INCLINATION":87.8806,"RA_OF_ASC_NODE":85.2371,"ARG_OF_PERICENTER":77.0152,"MEAN_ANOMALY":283.1173,"EPHEMERIS_TYPE":0,"CLASSIFICATION_TYPE":"U","NORAD_CAT_ID":45443,"ELEMENT_SET_NO":999,"REV_AT_EPOCH":26042,"BSTAR":-0.00079449,"MEAN_MOTION_DOT":-2.69e-6,"MEAN_MOTION_DDOT":0},{"OBJECT_NAME":"ONEWEB-0093","OBJECT_ID":"2020-020W","EPOCH":"2025-07-30T04:20:59.748576","MEAN_MOTION":13.11416214,"ECCENTRICITY":0.0001996,"INCLINATION":87.8812,"RA_OF_ASC_NODE":85.2264,"ARG_OF_PERICENTER":91.7021,"MEAN_ANOMALY":268.4336,"EPHEMERIS_TYPE":0,"CLASSIFICATION_TYPE":"U","NORAD_CAT_ID":45444,"ELEMENT_SET_NO":999,"REV_AT_EPOCH":26048,"BSTAR":0.001668,"MEAN_MOTION_DOT":6.04e-6,"MEAN_MOTION_DDOT":0},{"OBJECT_NAME":"ONEWEB-0029","OBJECT_ID":"2020-020X","EPOCH":"2025-07-29T15:54:54.574560","MEAN_MOTION":13.11415478,"ECCENTRICITY":0.000188,"INCLINATION":87.8811,"RA_OF_ASC_NODE":85.3419,"ARG_OF_PERICENTER":81.8638,"MEAN_ANOMALY":278.2703,"EPHEMERIS_TYPE":0,"CLASSIFICATION_TYPE":"U","NORAD_CAT_ID":45445,"ELEMENT_SET_NO":999,"REV_AT_EPOCH":26038,"BSTAR":-0.00028803,"MEAN_MOTION_DOT":-8.9e-7,"MEAN_MOTION_DDOT":0},{"OBJECT_NAME":"ONEWEB-0068","OBJECT_ID":"2020-020Y","EPOCH":"2025-07-29T17:21:23.570208","MEAN_MOTION":13.11417112,"ECCENTRICITY":0.0001921,"INCLINATION":87.8813,"RA_OF_ASC_NODE":85.3187,"ARG_OF_PERICENTER":82.1319,"MEAN_ANOMALY":278.0027,"EPHEMERIS_TYPE":0,"CLASSIFICATION_TYPE":"U","NORAD_CAT_ID":45446,"ELEMENT_SET_NO":999,"REV_AT_EPOCH":26033,"BSTAR":0.0013673,"MEAN_MOTION_DOT":4.97e-6,"MEAN_MOTION_DDOT":0},{"OBJECT_NAME":"ONEWEB-0046","OBJECT_ID":"2020-020Z","EPOCH":"2025-07-29T17:09:22.984704","MEAN_MOTION":13.11416958,"ECCENTRICITY":0.0001737,"INCLINATION":87.8814,"RA_OF_ASC_NODE":85.3305,"ARG_OF_PERICENTER":87.6144,"MEAN_ANOMALY":272.5182,"EPHEMERIS_TYPE":0,"CLASSIFICATION_TYPE":"U","NORAD_CAT_ID":45447,"ELEMENT_SET_NO":999,"REV_AT_EPOCH":26034,"BSTAR":0.0014957,"MEAN_MOTION_DOT":5.43e-6,"MEAN_MOTION_DDOT":0},{"OBJECT_NAME":"ONEWEB-0063","OBJECT_ID":"2020-020AA","EPOCH":"2025-07-30T04:50:04.676064","MEAN_MOTION":13.11414653,"ECCENTRICITY":0.0001559,"INCLINATION":87.8814,"RA_OF_ASC_NODE":85.2313,"ARG_OF_PERICENTER":84.0637,"MEAN_ANOMALY":276.0669,"EPHEMERIS_TYPE":0,"CLASSIFICATION_TYPE":"U","NORAD_CAT_ID":45448,"ELEMENT_SET_NO":999,"REV_AT_EPOCH":26049,"BSTAR":0.00030263,"MEAN_MOTION_DOT":1.2e-6,"MEAN_MOTION_DDOT":0},{"OBJECT_NAME":"ONEWEB-0019","OBJECT_ID":"2020-020AB","EPOCH":"2025-07-29T17:13:02.555616","MEAN_MOTION":13.11418167,"ECCENTRICITY":0.0001845,"INCLINATION":87.8811,"RA_OF_ASC_NODE":85.3458,"ARG_OF_PERICENTER":77.8254,"MEAN_ANOMALY":282.308,"EPHEMERIS_TYPE":0,"CLASSIFICATION_TYPE":"U","NORAD_CAT_ID":45449,"ELEMENT_SET_NO":999,"REV_AT_EPOCH":26027,"BSTAR":0.0014865,"MEAN_MOTION_DOT":5.4e-6,"MEAN_MOTION_DDOT":0},{"OBJECT_NAME":"ONEWEB-0094","OBJECT_ID":"2020-020AC","EPOCH":"2025-07-29T20:33:02.321568","MEAN_MOTION":13.17650667,"ECCENTRICITY":0.0001787,"INCLINATION":87.9037,"RA_OF_ASC_NODE":69.9896,"ARG_OF_PERICENTER":86.0698,"MEAN_ANOMALY":274.0638,"EPHEMERIS_TYPE":0,"CLASSIFICATION_TYPE":"U","NORAD_CAT_ID":45450,"ELEMENT_SET_NO":999,"REV_AT_EPOCH":26386,"BSTAR":-3.8221e-5,"MEAN_MOTION_DOT":-2.0e-8,"MEAN_MOTION_DDOT":0},{"OBJECT_NAME":"ONEWEB-0087","OBJECT_ID":"2020-020AD","EPOCH":"2025-07-29T21:45:03.280608","MEAN_MOTION":13.1141742,"ECCENTRICITY":0.000197,"INCLINATION":87.8811,"RA_OF_ASC_NODE":85.2413,"ARG_OF_PERICENTER":84.8445,"MEAN_ANOMALY":275.2907,"EPHEMERIS_TYPE":0,"CLASSIFICATION_TYPE":"U","NORAD_CAT_ID":45451,"ELEMENT_SET_NO":999,"REV_AT_EPOCH":26034,"BSTAR":-0.0013907,"MEAN_MOTION_DOT":-4.8e-6,"MEAN_MOTION_DDOT":0},{"OBJECT_NAME":"ONEWEB-0082","OBJECT_ID":"2020-020AE","EPOCH":"2025-07-30T04:59:50.571744","MEAN_MOTION":13.1141493,"ECCENTRICITY":0.0001935,"INCLINATION":87.8811,"RA_OF_ASC_NODE":85.2052,"ARG_OF_PERICENTER":78.8521,"MEAN_ANOMALY":281.2824,"EPHEMERIS_TYPE":0,"CLASSIFICATION_TYPE":"U","NORAD_CAT_ID":45452,"ELEMENT_SET_NO":999,"REV_AT_EPOCH":26048,"BSTAR":-0.0007452,"MEAN_MOTION_DOT":-2.51e-6,"MEAN_MOTION_DDOT":0},{"OBJECT_NAME":"ONEWEB-0050","OBJECT_ID":"2020-020AF","EPOCH":"2025-07-30T05:00:15.652800","MEAN_MOTION":14.90864687,"ECCENTRICITY":0.0004751,"INCLINATION":87.9975,"RA_OF_ASC_NODE":284.4376,"ARG_OF_PERICENTER":73.8197,"MEAN_ANOMALY":286.3555,"EPHEMERIS_TYPE":0,"CLASSIFICATION_TYPE":"U","NORAD_CAT_ID":45453,"ELEMENT_SET_NO":999,"REV_AT_EPOCH":29244,"BSTAR":0.00029797,"MEAN_MOTION_DOT":2.959e-5,"MEAN_MOTION_DDOT":0}]
